[{"OBJECT_NAME":"ONEWEB-0629","OBJECT_ID":"2023-004AG","EPOCH":"2025-11-12T05:45:18.902304","MEAN_MOTION":13.1764929,"ECCENTRICITY":0.00015666,"INCLINATION":87.9125,"RA_OF_ASC_NODE":49.0189,"ARG_OF_PERICENTER":112.8117,"MEAN_ANOMALY":247.318,"EPHEMERIS_TYPE":0,"CLASSIFICATION_TYPE":"U","NORAD_CAT_ID":55170,"ELEMENT_SET_NO":999,"REV_AT_EPOCH":13901,"BSTAR":1.8683644e-5,"MEAN_MOTION_DOT":2.0e-7,"MEAN_MOTION_DDOT":0},{"OBJECT_NAME":"ONEWEB-0631","OBJECT_ID":"2023-004AH","EPOCH":"2025-11-12T05:54:22.345344","MEAN_MOTION":13.1868901,"ECCENTRICITY":0.00018938,"INCLINATION":87.9222,"RA_OF_ASC_NODE":18.5202,"ARG_OF_PERICENTER":82.0366,"MEAN_ANOMALY":278.0981,"EPHEMERIS_TYPE":0,"CLASSIFICATION_TYPE":"U","NORAD_CAT_ID":55171,"ELEMENT_SET_NO":999,"REV_AT_EPOCH":14108,"BSTAR":0.00012263481,"MEAN_MOTION_DOT":6.1e-7,"MEAN_MOTION_DDOT":0},{"OBJECT_NAME":"ONEWEB-0709","OBJECT_ID":"2023-004AJ","EPOCH":"2025-11-12T07:01:23.601792","MEAN_MOTION":13.11416597,"ECCENTRICITY":0.00023355,"INCLINATION":87.8855,"RA_OF_ASC_NODE":64.2795,"ARG_OF_PERICENTER":85.376,"MEAN_ANOMALY":274.7635,"EPHEMERIS_TYPE":0,"CLASSIFICATION_TYPE":"U","NORAD_CAT_ID":55172,"ELEMENT_SET_NO":999,"REV_AT_EPOCH":13744,"BSTAR":0.0014697676,"MEAN_MOTION_DOT":5.34e-6,"MEAN_MOTION_DDOT":0},{"OBJECT_NAME":"ONEWEB-0710","OBJECT_ID":"2023-004AK","EPOCH":"2025-11-12T06:05:57.543072","MEAN_MOTION":13.17651592,"ECCENTRICITY":0.00015177,"INCLINATION":87.9129,"RA_OF_ASC_NODE":49.0104,"ARG_OF_PERICENTER":99.3422,"MEAN_ANOMALY":260.7881,"EPHEMERIS_TYPE":0,"CLASSIFICATION_TYPE":"U","NORAD_CAT_ID":55173,"ELEMENT_SET_NO":999,"REV_AT_EPOCH":13901,"BSTAR":0.00025912027,"MEAN_MOTION_DOT":1.13e-6,"MEAN_MOTION_DDOT":0},{"OBJECT_NAME":"ONEWEB-0711","OBJECT_ID":"2023-004AL","EPOCH":"2025-11-12T06:19:51.718656","MEAN_MOTION":13.11417305,"ECCENTRICITY":8.365e-5,"INCLINATION":87.8865,"RA_OF_ASC_NODE":64.2565,"ARG_OF_PERICENTER":92.2545,"MEAN_ANOMALY":267.8679,"EPHEMERIS_TYPE":0,"CLASSIFICATION_TYPE":"U","NORAD_CAT_ID":55174,"ELEMENT_SET_NO":999,"REV_AT_EPOCH":13740,"BSTAR":-0.00092840601,"MEAN_MOTION_DOT":-3.16e-6,"MEAN_MOTION_DDOT":0},{"OBJECT_NAME":"ONEWEB-0713","OBJECT_ID":"2023-004AM","EPOCH":"2025-11-12T06:46:43.171968","MEAN_MOTION":13.11420225,"ECCENTRICITY":0.00012814,"INCLINATION":87.886,"RA_OF_ASC_NODE":64.2567,"ARG_OF_PERICENTER":97.5234,"MEAN_ANOMALY":262.604,"EPHEMERIS_TYPE":0,"CLASSIFICATION_TYPE":"U","NORAD_CAT_ID":55175,"ELEMENT_SET_NO":999,"REV_AT_EPOCH":13739,"BSTAR":0.0011164248,"MEAN_MOTION_DOT":4.08e-6,"MEAN_MOTION_DDOT":0},{"OBJECT_NAME":"ONEWEB-0715","OBJECT_ID":"2023-004AN","EPOCH":"2025-11-12T06:39:23.934240","MEAN_MOTION":13.11420526,"ECCENTRICITY":0.00019367,"INCLINATION":87.8862,"RA_OF_ASC_NODE":64.2577,"ARG_OF_PERICENTER":80.0678,"MEAN_ANOMALY":280.0668,"EPHEMERIS_TYPE":0,"CLASSIFICATION_TYPE":"U","NORAD_CAT_ID":55176,"ELEMENT_SET_NO":999,"REV_AT_EPOCH":13743,"BSTAR":0.00045218997,"MEAN_MOTION_DOT":1.73e-6,"MEAN_MOTION_DDOT":0},{"OBJECT_NAME":"ONEWEB-0716","OBJECT_ID":"2023-004AP","EPOCH":"2025-11-12T05:56:14.538336","MEAN_MOTION":13.17650924,"ECCENTRICITY":0.00018277,"INCLINATION":87.9131,"RA_OF_ASC_NODE":49.0116,"ARG_OF_PERICENTER":106.7689,"MEAN_ANOMALY":253.3643,"EPHEMERIS_TYPE":0,"CLASSIFICATION_TYPE":"U","NORAD_CAT_ID":55177,"ELEMENT_SET_NO":999,"REV_AT_EPOCH":13901,"BSTAR":6.844444e-5,"MEAN_MOTION_DOT":3.9e-7,"MEAN_MOTION_DDOT":0},{"OBJECT_NAME":"ONEWEB-0717","OBJECT_ID":"2023-004AQ","EPOCH":"2025-11-12T07:21:17.007840","MEAN_MOTION":13.17651616,"ECCENTRICITY":0.00011063,"INCLINATION":87.9138,"RA_OF_ASC_NODE":48.968,"ARG_OF_PERICENTER":84.007,"MEAN_ANOMALY":276.1188,"EPHEMERIS_TYPE":0,"CLASSIFICATION_TYPE":"U","NORAD_CAT_ID":55178,"ELEMENT_SET_NO":999,"REV_AT_EPOCH":13907,"BSTAR":0.00034995478,"MEAN_MOTION_DOT":1.49e-6,"MEAN_MOTION_DDOT":0},{"OBJECT_NAME":"ONEWEB-0719","OBJECT_ID":"2023-004AR","EPOCH":"2025-11-12T05:46:30.638496","MEAN_MOTION":13.17651445,"ECCENTRICITY":0.00017112,"INCLINATION":87.9139,"RA_OF_ASC_NODE":48.9639,"ARG_OF_PERICENTER":109.7409,"MEAN_ANOMALY":250.3908,"EPHEMERIS_TYPE":0,"CLASSIFICATION_TYPE":"U","NORAD_CAT_ID":55179,"ELEMENT_SET_NO":999,"REV_AT_EPOCH":13901,"BSTAR":0.00012276617,"MEAN_MOTION_DOT":6.1e-7,"MEAN_MOTION_DDOT":0},{"OBJECT_NAME":"ONEWEB-0530","OBJECT_ID":"2023-029A","EPOCH":"2025-11-12T06:35:19.511232","MEAN_MOTION":13.20771632,"ECCENTRICITY":0.00013072,"INCLINATION":87.918,"RA_OF_ASC_NODE":317.7452,"ARG_OF_PERICENTER":88.5719,"MEAN_ANOMALY":271.5564,"EPHEMERIS_TYPE":0,"CLASSIFICATION_TYPE":"U","NORAD_CAT_ID":55796,"ELEMENT_SET_NO":999,"REV_AT_EPOCH":13251,"BSTAR":0.00032801674,"MEAN_MOTION_DOT":1.46e-6,"MEAN_MOTION_DDOT":0},{"OBJECT_NAME":"ONEWEB-0534","OBJECT_ID":"2023-029B","EPOCH":"2025-11-12T06:17:08.877984","MEAN_MOTION":13.20771591,"ECCENTRICITY":0.00018674,"INCLINATION":87.9174,"RA_OF_ASC_NODE":317.7488,"ARG_OF_PERICENTER":93.6191,"MEAN_ANOMALY":266.5156,"EPHEMERIS_TYPE":0,"CLASSIFICATION_TYPE":"U","NORAD_CAT_ID":55797,"ELEMENT_SET_NO":999,"REV_AT_EPOCH":13251,"BSTAR":2.697001e-6,"MEAN_MOTION_DOT":1.4e-7,"MEAN_MOTION_DDOT":0},{"OBJECT_NAME":"ONEWEB-0556","OBJECT_ID":"2023-029C","EPOCH":"2025-11-12T06:26:14.040384","MEAN_MOTION":13.20771306,"ECCENTRICITY":0.0001605,"INCLINATION":87.9183,"RA_OF_ASC_NODE":317.7465,"ARG_OF_PERICENTER":115.3204,"MEAN_ANOMALY":244.8096,"EPHEMERIS_TYPE":0,"CLASSIFICATION_TYPE":"U","NORAD_CAT_ID":55798,"ELEMENT_SET_NO":999,"REV_AT_EPOCH":13251,"BSTAR":2.735e-9,"MEAN_MOTION_DOT":1.3e-7,"MEAN_MOTION_DDOT":0},{"OBJECT_NAME":"ONEWEB-0562","OBJECT_ID":"2023-029D","EPOCH":"2025-11-12T06:08:01.176288","MEAN_MOTION":13.20773551,"ECCENTRICITY":0.0001021,"INCLINATION":87.9178,"RA_OF_ASC_NODE":317.7325,"ARG_OF_PERICENTER":108.5611,"MEAN_ANOMALY":251.5634,"EPHEMERIS_TYPE":0,"CLASSIFICATION_TYPE":"U","NORAD_CAT_ID":55799,"ELEMENT_SET_NO":999,"REV_AT_EPOCH":13251,"BSTAR":0.0001604845,"MEAN_MOTION_DOT":7.8e-7,"MEAN_MOTION_DDOT":0},{"OBJECT_NAME":"ONEWEB-0563","OBJECT_ID":"2023-029E","EPOCH":"2025-11-12T05:58:57.770400","MEAN_MOTION":13.20771789,"ECCENTRICITY":0.00020135,"INCLINATION":87.9183,"RA_OF_ASC_NODE":317.7599,"ARG_OF_PERICENTER":98.1719,"MEAN_ANOMALY":261.9643,"EPHEMERIS_TYPE":0,"CLASSIFICATION_TYPE":"U","NORAD_CAT_ID":55800,"ELEMENT_SET_NO":999,"REV_AT_EPOCH":13250,"BSTAR":6.6956857e-5,"MEAN_MOTION_DOT":4.0e-7,"MEAN_MOTION_DDOT":0},{"OBJECT_NAME":"ONEWEB-0564","OBJECT_ID":"2023-029F","EPOCH":"2025-11-12T00:22:35.927040","MEAN_MOTION":13.20772577,"ECCENTRICITY":0.00014073,"INCLINATION":87.9172,"RA_OF_ASC_NODE":317.784,"ARG_OF_PERICENTER":92.2113,"MEAN_ANOMALY":267.9182,"EPHEMERIS_TYPE":0,"CLASSIFICATION_TYPE":"U","NORAD_CAT_ID":55801,"ELEMENT_SET_NO":999,"REV_AT_EPOCH":13248,"BSTAR":-0.0002775978,"MEAN_MOTION_DOT":-1.0e-6,"MEAN_MOTION_DDOT":0},{"OBJECT_NAME":"ONEWEB-0638","OBJECT_ID":"2023-029G","EPOCH":"2025-11-12T07:19:24.750912","MEAN_MOTION":13.14501582,"ECCENTRICITY":0.00015824,"INCLINATION":87.8989,"RA_OF_ASC_NODE":332.9793,"ARG_OF_PERICENTER":108.502,"MEAN_ANOMALY":251.6281,"EPHEMERIS_TYPE":0,"CLASSIFICATION_TYPE":"U","NORAD_CAT_ID":55802,"ELEMENT_SET_NO":999,"REV_AT_EPOCH":13090,"BSTAR":-0.00078320521,"MEAN_MOTION_DOT":-2.78e-6,"MEAN_MOTION_DDOT":0},{"OBJECT_NAME":"ONEWEB-0639","OBJECT_ID":"2023-029H","EPOCH":"2025-11-12T02:52:54.513696","MEAN_MOTION":13.19727351,"ECCENTRICITY":0.00029518,"INCLINATION":87.9215,"RA_OF_ASC_NODE":348.1757,"ARG_OF_PERICENTER":101.1364,"MEAN_ANOMALY":259.0101,"EPHEMERIS_TYPE":0,"CLASSIFICATION_TYPE":"U","NORAD_CAT_ID":55803,"ELEMENT_SET_NO":999,"REV_AT_EPOCH":13027,"BSTAR":0.00035228422,"MEAN_MOTION_DOT":1.54e-6,"MEAN_MOTION_DDOT":0},{"OBJECT_NAME":"ONEWEB-0640","OBJECT_ID":"2023-029J","EPOCH":"2025-11-12T07:33:05.607936","MEAN_MOTION":13.14500217,"ECCENTRICITY":0.00020193,"INCLINATION":87.8992,"RA_OF_ASC_NODE":332.9633,"ARG_OF_PERICENTER":116.3002,"MEAN_ANOMALY":243.8336,"EPHEMERIS_TYPE":0,"CLASSIFICATION_TYPE":"U","NORAD_CAT_ID":55804,"ELEMENT_SET_NO":999,"REV_AT_EPOCH":13092,"BSTAR":-0.00051256036,"MEAN_MOTION_DOT":-1.77e-6,"MEAN_MOTION_DDOT":0},{"OBJECT_NAME":"ONEWEB-0641","OBJECT_ID":"2023-029K","EPOCH":"2025-11-12T02:46:04.257984","MEAN_MOTION":13.19727696,"ECCENTRICITY":0.00020464,"INCLINATION":87.9224,"RA_OF_ASC_NODE":348.1544,"ARG_OF_PERICENTER":96.5847,"MEAN_ANOMALY":263.5518,"EPHEMERIS_TYPE":0,"CLASSIFICATION_TYPE":"U","NORAD_CAT_ID":55805,"ELEMENT_SET_NO":999,"REV_AT_EPOCH":13028,"BSTAR":0.00026904071,"MEAN_MOTION_DOT":1.21e-6,"MEAN_MOTION_DDOT":0},{"OBJECT_NAME":"ONEWEB-0642","OBJECT_ID":"2023-029L","EPOCH":"2025-11-12T02:39:15.284448","MEAN_MOTION":13.19727134,"ECCENTRICITY":0.0002747,"INCLINATION":87.9211,"RA_OF_ASC_NODE":348.1815,"ARG_OF_PERICENTER":94.7074,"MEAN_ANOMALY":265.4372,"EPHEMERIS_TYPE":0,"CLASSIFICATION_TYPE":"U","NORAD_CAT_ID":55806,"ELEMENT_SET_NO":999,"REV_AT_EPOCH":13027,"BSTAR":0.00023640397,"MEAN_MOTION_DOT":1.08e-6,"MEAN_MOTION_DDOT":0},{"OBJECT_NAME":"ONEWEB-0643","OBJECT_ID":"2023-029M","EPOCH":"2025-11-12T06:49:43.072320","MEAN_MOTION":13.14500875,"ECCENTRICITY":0.00025201,"INCLINATION":87.9001,"RA_OF_ASC_NODE":332.955,"ARG_OF_PERICENTER":86.5543,"MEAN_ANOMALY":273.5875,"EPHEMERIS_TYPE":0,"CLASSIFICATION_TYPE":"U","NORAD_CAT_ID":55807,"ELEMENT_SET_NO":999,"REV_AT_EPOCH":13089,"BSTAR":0.00041746494,"MEAN_MOTION_DOT":1.68e-6,"MEAN_MOTION_DDOT":0},{"OBJECT_NAME":"ONEWEB-0644","OBJECT_ID":"2023-029N","EPOCH":"2025-11-12T02:32:25.821888","MEAN_MOTION":13.19726791,"ECCENTRICITY":0.00023535,"INCLINATION":87.9214,"RA_OF_ASC_NODE":348.1917,"ARG_OF_PERICENTER":94.8377,"MEAN_ANOMALY":265.3024,"EPHEMERIS_TYPE":0,"CLASSIFICATION_TYPE":"U","NORAD_CAT_ID":55808,"ELEMENT_SET_NO":999,"REV_AT_EPOCH":13027,"BSTAR":0.00012687196,"MEAN_MOTION_DOT":6.4e-7,"MEAN_MOTION_DDOT":0}]
